NORAD_CAT_ID,OBJECT_NAME,OBJECT_TYPE,EPOCH,MEAN_MOTION,ECCENTRICITY,INCLINATION,RA_OF_ASC_NODE,ARG_OF_PERICENTER,MEAN_ANOMALY,BSTAR,MEAN_MOTION_DOT,MEAN_MOTION_DDOT,TLE_LINE0,TLE_LINE1,TLE_LINE2,SEMIMAJOR_AXIS,PERIOD,APOGEE,PERIGEE,DECAYED
53741.0,STARLINK-4614,PAYLOAD,2024-05-07 21:54:02,15.08837013,0.000144,53.2185,20.126,94.5407,265.575,-1.1235e-05,-4.67e-06,0.0,0 STARLINK-4614,1 53741U 22107AT  24128.91253046 -.00000467  00000-0 -11235-4 0  9994,2 53741  53.2185  20.1260 0001440  94.5407 265.5750 15.08837013 93542,6917.89,95.438,540.751,538.758,0.0
53741.0,STARLINK-4614,PAYLOAD,2024-05-07 23:29:25,15.08836452,0.0001427,53.2185,19.8287,94.0364,266.0791,-1.5847e-05,-5.4e-06,0.0,0 STARLINK-4614,1 53741U 22107AT  24128.97877106 -.00000540  00000-0 -15847-4 0  9994,2 53741  53.2185  19.8287 0001427  94.0364 266.0791 15.08836452 93556,6917.891,95.438,540.743,538.769,0.0
53741.0,STARLINK-4614,PAYLOAD,2024-05-08 21:44:49,15.08836733,0.0001353,53.2182,15.665,92.7453,267.3694,2.0098e-06,-2.56e-06,0.0,0 STARLINK-4614,1 53741U 22107AT  24129.90613104 -.00000256  00000-0  20098-5 0  9992,2 53741  53.2182  15.6650 0001353  92.7453 267.3694 15.08836733 93696,6917.89,95.438,540.691,538.819,0.0
53741.0,STARLINK-4614,PAYLOAD,2024-05-09 02:30:59,15.0883851,0.0001303,53.2177,14.7742,87.5182,272.5959,6.5811e-06,-1.83e-06,0.0,0 STARLINK-4614,1 53741U 22107AT  24130.10485027 -.00000183  00000-0  65811-5 0  9998,2 53741  53.2177  14.7742 0001303  87.5182 272.5959 15.08838510 92942,6917.885,95.438,540.651,538.849,0.0
53741.0,STARLINK-4614,PAYLOAD,2024-05-09 08:52:31,15.08841065,0.0001323,53.218,13.585,88.3064,271.8079,2.6248e-05,1.3e-06,0.0,0 STARLINK-4614,1 53741U 22107AT  24130.36980825  .00000130  00000-0  26248-4 0  9993,2 53741  53.2180  13.5850 0001323  88.3064 271.8079 15.08841065 93768,6917.877,95.437,540.657,538.827,0.0
53741.0,STARLINK-4614,PAYLOAD,2024-05-09 21:35:37,15.08834087,0.0001429,53.2193,11.2081,96.0214,264.0941,2.0303e-05,3.5e-07,0.0,0 STARLINK-4614,1 53741U 22107AT  24130.89973492  .00000035  00000-0  20303-4 0  9993,2 53741  53.2193  11.2081 0001429  96.0214 264.0941 15.08834087 93840,6917.898,95.438,540.752,538.775,0.0
53741.0,STARLINK-4614,PAYLOAD,2024-05-10 15:04:51,15.08838574,0.0001421,53.2195,7.937,94.9418,265.1737,1.8837e-05,1.2e-07,0.0,0 STARLINK-4614,1 53741U 22107AT  24131.62837461  .00000012  00000-0  18837-4 0  9994,2 53741  53.2195   7.9370 0001421  94.9418 265.1737 15.08838574 93952,6917.885,95.438,540.733,538.767,0.0
53741.0,STARLINK-4614,PAYLOAD,2024-05-10 21:26:24,15.08835247,0.0001442,53.2192,6.7474,93.5034,266.6123,2.9603e-05,1.83e-06,0.0,0 STARLINK-4614,1 53741U 22107AT  24131.89333679  .00000183  00000-0  29603-4 0  9997,2 53741  53.2192   6.7474 0001442  93.5034 266.6123 15.08835247 93996,6917.895,95.438,540.757,538.762,0.0
53741.0,STARLINK-4614,PAYLOAD,2024-05-11 08:34:04,15.08855294,0.0001238,53.2189,4.6644,88.7775,271.3359,0.00015413,2.167e-05,0.0,0 STARLINK-4614,1 53741U 22107AT  24132.35700141  .00002167  00000-0  15413-3 0  9998,2 53741  53.2189   4.6644 0001238  88.7775 271.3359 15.08855294 93289,6917.834,95.437,540.555,538.842,0.0
53741.0,STARLINK-4614,PAYLOAD,2024-05-11 21:17:08,15.08862801,0.0001237,53.2175,2.2866,91.3709,268.7425,0.00023654,3.481e-05,0.0,0 STARLINK-4614,1 53741U 22107AT  24132.88690751  .00003481  00000-0  23654-3 0  9997,2 53741  53.2175   2.2866 0001237  91.3709 268.7425 15.08862801 93365,6917.811,95.436,540.531,538.82,0.0
53741.0,STARLINK-4614,PAYLOAD,2024-05-12 00:27:54,15.08866578,0.0001364,53.2184,1.6912,88.0744,272.0404,0.00027403,4.079e-05,0.0,0 STARLINK-4614,1 53741U 22107AT  24133.01938540  .00004079  00000-0  27403-3 0  9994,2 53741  53.2184   1.6912 0001364  88.0744 272.0404 15.08866578 94162,6917.799,95.436,540.608,538.721,0.0
53741.0,STARLINK-4614,PAYLOAD,2024-05-12 21:07:59,15.08792655,0.0001477,53.2174,357.8249,66.6724,293.4424,-0.00062703,-0.0001024,0.0,0 STARLINK-4614,1 53741U 22107AT  24133.88055455 -.00010240  00000-0 -62703-3 0  9995,2 53741  53.2174 357.8249 0001477  66.6724 293.4424 15.08792655 93516,6918.025,95.441,540.912,538.868,0.0
53741.0,STARLINK-4614,PAYLOAD,2024-05-13 14:37:15,15.08786492,7.35e-05,53.2172,354.5524,292.7775,67.314,-0.00043234,-7.151e-05,0.0,0 STARLINK-4614,1 53741U 22107AT  24134.60920343 -.00007151  00000-0 -43234-3 0  9998,2 53741  53.2172 354.5524 0000735 292.7775  67.3140 15.08786492 94402,6918.044,95.441,540.417,539.4,0.0
53741.0,STARLINK-4614,PAYLOAD,2024-05-13 20:58:47,15.08819188,0.0001455,53.2168,353.3637,60.8344,299.2794,0.00057448,8.862e-05,0.0,0 STARLINK-4614,1 53741U 22107AT  24134.87416430  .00008862  00000-0  57448-3 0  9994,2 53741  53.2168 353.3637 0001455  60.8344 299.2794 15.08819188 94449,6917.944,95.439,540.816,538.802,0.0
53741.0,STARLINK-4614,PAYLOAD,2024-05-14 00:09:34,15.08822368,0.0001641,53.2167,352.768,66.8227,293.2938,0.00076043,0.00011829,0.0,0 STARLINK-4614,1 53741U 22107AT  24135.00664670  .00011829  00000-0  76043-3 0  9990,2 53741  53.2167 352.7680 0001641  66.8227 293.2938 15.08822368 93685,6917.934,95.439,540.935,538.664,0.0
53741.0,STARLINK-4614,PAYLOAD,2024-05-14 08:06:29,15.08832719,0.00015,53.2169,351.2802,71.0592,289.0563,0.00065483,0.00010147,0.0,0 STARLINK-4614,1 53741U 22107AT  24135.33784578  .00010147  00000-0  65483-3 0  9994,2 53741  53.2169 351.2802 0001500  71.0592 289.0563 15.08832719 94515,6917.903,95.438,540.805,538.73,0.0
53741.0,STARLINK-4614,PAYLOAD,2024-05-14 20:49:35,15.08840584,0.0001737,53.2165,348.9029,58.8899,301.2263,0.0010155,0.00015911,0.0,0 STARLINK-4614,1 53741U 22107AT  24135.86777220  .00015911  00000-0  10155-2 0  9997,2 53741  53.2165 348.9029 0001737  58.8899 301.2263 15.08840584 94591,6917.879,95.438,540.945,538.542,0.0
53741.0,STARLINK-4614,PAYLOAD,2024-05-15 14:18:48,15.08865285,0.0001813,53.2171,345.632,55.7168,304.3996,0.00040953,6.24e-05,0.0,0 STARLINK-4614,1 53741U 22107AT  24136.59639423  .00006240  00000-0  40953-3 0  9995,2 53741  53.2171 345.6320 0001813  55.7168 304.3996 15.08865285 94701,6917.803,95.436,540.922,538.414,0.0
53741.0,STARLINK-4614,PAYLOAD,2024-05-15 19:04:57,15.08867916,0.0001825,53.2174,344.7399,55.4362,304.6802,0.00040286,6.134e-05,0.0,0 STARLINK-4614,1 53741U 22107AT  24136.79511068  .00006134  00000-0  40286-3 0  9992,2 53741  53.2174 344.7399 0001825  55.4362 304.6802 15.08867916 93954,6917.795,95.436,540.923,538.398,0.0
53741.0,STARLINK-4614,PAYLOAD,2024-05-15 23:51:06,15.08872514,0.0001801,53.2175,343.8475,55.6364,304.4799,0.00044314,6.778e-05,0.0,0 STARLINK-4614,1 53741U 22107AT  24136.99382581  .00006778  00000-0  44314-3 0  9990,2 53741  53.2175 343.8475 0001801  55.6364 304.4799 15.08872514 94761,6917.781,95.435,540.892,538.4,0.0
53741.0,STARLINK-4614,PAYLOAD,2024-05-16 20:31:05,15.08884759,0.0001822,53.2172,339.9805,55.615,304.5014,0.00043571,6.661e-05,0.0,0 STARLINK-4614,1 53741U 22107AT  24137.85492254  .00006661  00000-0  43571-3 0  9990,2 53741  53.2172 339.9805 0001822  55.6150 304.5014 15.08884759 94896,6917.744,95.435,540.869,538.348,0.0
53741.0,STARLINK-4614,PAYLOAD,2024-05-17 12:24:56,15.08860715,0.0002527,53.2184,337.0154,303.3774,56.6976,8.8011e-05,1.113e-05,0.0,0 STARLINK-4614,1 53741U 22107AT  24138.51731611  .00001113  00000-0  88011-4 0  9993,2 53741  53.2184 337.0154 0002527 303.3774  56.6976 15.08860715 94217,6917.817,95.436,541.43,537.934,0.0
53741.0,STARLINK-4614,PAYLOAD,2024-05-17 20:21:52,15.08832751,0.0001183,53.217,335.5207,18.5117,341.5918,-0.00056469,-9.262e-05,0.0,0 STARLINK-4614,1 53741U 22107AT  24138.84852571 -.00009262  00000-0 -56469-3 0  9994,2 53741  53.2170 335.5207 0001183  18.5117 341.5918 15.08832751 94263,6917.903,95.438,540.586,538.949,0.0
53741.0,STARLINK-4614,PAYLOAD,2024-05-18 05:54:11,15.08829523,0.0001555,53.2163,333.7373,68.4361,291.6797,-0.00038197,-6.36e-05,0.0,0 STARLINK-4614,1 53741U 22107AT  24139.24596868 -.00006360  00000-0 -38197-3 0  9997,2 53741  53.2163 333.7373 0001555  68.4361 291.6797 15.08829523 95104,6917.912,95.438,540.853,538.702,0.0
53741.0,STARLINK-4614,PAYLOAD,2024-05-18 21:48:03,15.08828534,0.0001448,53.2159,330.7643,71.9047,288.2103,0.00054581,8.407e-05,0.0,0 STARLINK-4614,1 53741U 22107AT  24139.90837844  .00008407  00000-0  54581-3 0  9999,2 53741  53.2159 330.7643 0001448  71.9047 288.2103 15.08828534 95202,6917.915,95.438,540.782,538.779,0.0
53741.0,STARLINK-4614,PAYLOAD,2024-05-19 12:06:32,15.08831737,0.0001463,53.2159,328.0894,77.0631,283.0524,0.00037348,5.66e-05,0.0,0 STARLINK-4614,1 53741U 22107AT  24140.50454345  .00005660  00000-0  37348-3 0  9998,2 53741  53.2159 328.0894 0001463  77.0631 283.0524 15.08831737 95291,6917.906,95.438,540.783,538.759,0.0
53741.0,STARLINK-4614,PAYLOAD,2024-05-19 20:03:28,15.08829478,0.0001453,53.2161,326.6022,76.3987,283.7167,0.0002434,3.587e-05,0.0,0 STARLINK-4614,1 53741U 22107AT  24140.83574733  .00003587  00000-0  24340-3 0  9992,2 53741  53.2161 326.6022 0001453  76.3987 283.7167 15.08829478 94564,6917.913,95.438,540.783,538.772,0.0
53741.0,STARLINK-4614,PAYLOAD,2024-05-20 11:57:20,15.08835805,0.0001467,53.2161,323.6287,77.2732,282.8424,0.00031517,4.731e-05,0.0,0 STARLINK-4614,1 53741U 22107AT  24141.49815001  .00004731  00000-0  31517-3 0  9997,2 53741  53.2161 323.6287 0001467  77.2732 282.8424 15.08835805 95442,6917.893,95.438,540.773,538.743,0.0
53741.0,STARLINK-4614,PAYLOAD,2024-05-21 11:48:07,15.0884447,0.0001355,53.2161,319.1678,80.9325,279.182,0.00030081,4.503e-05,0.0,0 STARLINK-4614,1 53741U 22107AT  24142.49174814  .00004503  00000-0  30081-3 0  9990,2 53741  53.2161 319.1678 0001355  80.9325 279.1820 15.08844470 94818,6917.867,95.437,540.669,538.794,0.0
53741.0,STARLINK-4614,PAYLOAD,2024-05-21 18:09:39,15.0884442,0.0001288,53.2159,317.9776,85.6376,274.4763,0.00025177,3.722e-05,0.0,0 STARLINK-4614,1 53741U 22107AT  24142.75670762  .00003722  00000-0  25177-3 0  9994,2 53741  53.2159 317.9776 0001288  85.6376 274.4763 15.08844420 95633,6917.867,95.437,540.623,538.841,0.0
